{"type": "FeatureCollection", "features": [ {"type": "Feature", "properties": {"norad_id": 34683, "name": "COSMOS 2251 DEB", "group": "cosmos-2251-debris", "lat": 59.13060339502235, "lon": 110.80830733703537, "alt_km": 681.1731506352826, "timestamp": "2025-12-17T23:38:07.248403+00:00", "meta": {"OBJECT_NAME": "COSMOS 2251 DEB", "OBJECT_ID": "1993-036YD", "EPOCH": "2025-12-16T16:44:52.401408", "MEAN_MOTION": 14.64541526, "ECCENTRICITY": 0.00179666, "INCLINATION": 74.0296, "RA_OF_ASC_NODE": 84.6565, "ARG_OF_PERICENTER": 199.7117, "MEAN_ANOMALY": 281.0939, "EPHEMERIS_TYPE": 0, "CLASSIFICATION_TYPE": "U", "NORAD_CAT_ID": 34683, "ELEMENT_SET_NO": 999, "REV_AT_EPOCH": 88406, "BSTAR": 0.00092874432, "MEAN_MOTION_DOT": 4.91e-05, "MEAN_MOTION_DDOT": 0}, "tle": {"line1": "1 34683U 93036YD  25350.69782872  .00004910  00000+0  92874-3 0  9995", "line2": "2 34683  74.0296  84.6565 0017966 199.7117 281.0939 14.64541526884068"}}, "geometry": {"type": "Point", "coordinates": [110.80830733703537, 59.13060339502235]}}, {"type": "Feature", "properties": {"norad_id": 34685, "name": "COSMOS 2251 DEB", "group": "cosmos-2251-debris", "lat": 72.23264696103678, "lon": -157.8404761479624, "alt_km": 703.288157879505, "timestamp": "2025-12-17T23:38:07.248413+00:00", "meta": {"OBJECT_NAME": "COSMOS 2251 DEB", "OBJECT_ID": "1993-036YF", "EPOCH": "2025-12-17T10:13:25.867776", "MEAN_MOTION": 14.57549511, "ECCENTRICITY": 0.00142409, "INCLINATION": 74.0286, "RA_OF_ASC_NODE": 139.8718, "ARG_OF_PERICENTER": 243.9413, "MEAN_ANOMALY": 147.2708, "EPHEMERIS_TYPE": 0, "CLASSIFICATION_TYPE": "U", "NORAD_CAT_ID": 34685, "ELEMENT_SET_NO": 999, "REV_AT_EPOCH": 88600, "BSTAR": 0.00080988056, "MEAN_MOTION_DOT": 3.662e-05, "MEAN_MOTION_DDOT": 0}, "tle": {"line1": "1 34685U 93036YF  25351.42599384  .00003662  00000+0  80988-3 0  9999", "line2": "2 34685  74.0286 139.8718 0014240 243.9413 147.2708 14.57549511886002"}}, "geometry": {"type": "Point", "coordinates": [-157.8404761479624, 72.23264696103678]}}, {"type": "Feature", "properties": {"norad_id": 34689, "name": "COSMOS 2251 DEB", "group": "cosmos-2251-debris", "lat": 5.928762424292366, "lon": -144.03073508938203, "alt_km": 859.9385852767218, "timestamp": "2025-12-17T23:38:07.248423+00:00", "meta": {"OBJECT_NAME": "COSMOS 2251 DEB", "OBJECT_ID": "1993-036YK", "EPOCH": "2025-12-15T15:20:16.539648", "MEAN_MOTION": 14.04491905, "ECCENTRICITY": 0.02275051, "INCLINATION": 74.0901, "RA_OF_ASC_NODE": 218.3502, "ARG_OF_PERICENTER": 286.6099, "MEAN_ANOMALY": 101.262, "EPHEMERIS_TYPE": 0, "CLASSIFICATION_TYPE": "U", "NORAD_CAT_ID": 34689, "ELEMENT_SET_NO": 999, "REV_AT_EPOCH": 84382, "BSTAR": 0.0020174062, "MEAN_MOTION_DOT": 4.031e-05, "MEAN_MOTION_DDOT": 0}, "tle": {"line1": "1 34689U 93036YK  25349.63908032  .00004031  00000+0  20174-2 0  9998", "line2": "2 34689  74.0901 218.3502 0227505 286.6099 101.2620 14.04491905843829"}}, "geometry": {"type": "Point", "coordinates": [-144.03073508938203, 5.928762424292366]}}, {"type": "Feature", "properties": {"norad_id": 34721, "name": "COSMOS 2251 DEB", "group": "cosmos-2251-debris", "lat": -64.53763734458951, "lon": 174.42378322201287, "alt_km": 749.3949843743039, "timestamp": "2025-12-17T23:38:07.248433+00:00", "meta": {"OBJECT_NAME": "COSMOS 2251 DEB", "OBJECT_ID": "1993-036YP", "EPOCH": "2025-12-16T09:23:35.751264", "MEAN_MOTION": 13.96869832, "ECCENTRICITY": 0.02234243, "INCLINATION": 73.923, "RA_OF_ASC_NODE": 319.9132, "ARG_OF_PERICENTER": 258.2136, "MEAN_ANOMALY": 262.1516, "EPHEMERIS_TYPE": 0, "CLASSIFICATION_TYPE": "U", "NORAD_CAT_ID": 34721, "ELEMENT_SET_NO": 999, "REV_AT_EPOCH": 85200, "BSTAR": 0.00097212088, "MEAN_MOTION_DOT": 1.644e-05, "MEAN_MOTION_DDOT": 0}, "tle": {"line1": "1 34721U 93036YP  25350.39138601  .00001644  00000+0  97212-3 0  9992", "line2": "2 34721  73.9230 319.9132 0223424 258.2136 262.1516 13.96869832852008"}}, "geometry": {"type": "Point", "coordinates": [174.42378322201287, -64.53763734458951]}}, {"type": "Feature", "properties": {"norad_id": 34722, "name": "COSMOS 2251 DEB", "group": "cosmos-2251-debris", "lat": 39.269106864750086, "lon": -19.603763916062963, "alt_km": 953.3048691555132, "timestamp": "2025-12-17T23:38:07.248443+00:00", "meta": {"OBJECT_NAME": "COSMOS 2251 DEB", "OBJECT_ID": "1993-036YQ", "EPOCH": "2025-12-17T08:51:47.074176", "MEAN_MOTION": 14.11948986, "ECCENTRICITY": 0.01669112, "INCLINATION": 73.8722, "RA_OF_ASC_NODE": 327.8097, "ARG_OF_PERICENTER": 252.5525, "MEAN_ANOMALY": 260.3373, "EPHEMERIS_TYPE": 0, "CLASSIFICATION_TYPE": "U", "NORAD_CAT_ID": 34722, "ELEMENT_SET_NO": 999, "REV_AT_EPOCH": 86310, "BSTAR": 0.00067650923, "MEAN_MOTION_DOT": 1.384e-05, "MEAN_MOTION_DDOT": 0}, "tle": {"line1": "1 34722U 93036YQ  25351.36929484  .00001384  00000+0  67651-3 0  9993", "line2": "2 34722  73.8722 327.8097 0166911 252.5525 260.3373 14.11948986863108"}}, "geometry": {"type": "Point", "coordinates": [-19.603763916062963, 39.269106864750086]}}, {"type": "Feature", "properties": {"norad_id": 34726, "name": "COSMOS 2251 DEB", "group": "cosmos-2251-debris", "lat": -61.32152140665152, "lon": -172.10921038430726, "alt_km": 716.4493999738925, "timestamp": "2025-12-17T23:38:07.248453+00:00", "meta": {"OBJECT_NAME": "COSMOS 2251 DEB", "OBJECT_ID": "1993-036YU", "EPOCH": "2025-12-17T09:21:20.367648", "MEAN_MOTION": 14.59500186, "ECCENTRICITY": 0.00418055, "INCLINATION": 74.0286, "RA_OF_ASC_NODE": 337.4528, "ARG_OF_PERICENTER": 126.7387, "MEAN_ANOMALY": 233.7629, "EPHEMERIS_TYPE": 0, "CLASSIFICATION_TYPE": "U", "NORAD_CAT_ID": 34726, "ELEMENT_SET_NO": 999, "REV_AT_EPOCH": 88570, "BSTAR": 0.00032277034, "MEAN_MOTION_DOT": 1.521e-05, "MEAN_MOTION_DDOT": 0}, "tle": {"line1": "1 34726U 93036YU  25351.38981907  .00001521  00000+0  32277-3 0  9996", "line2": "2 34726  74.0286 337.4528 0041805 126.7387 233.7629 14.59500186885704"}}, "geometry": {"type": "Point", "coordinates": [-172.10921038430726, -61.32152140665152]}}, {"type": "Feature", "properties": {"norad_id": 34728, "name": "COSMOS 2251 DEB", "group": "cosmos-2251-debris", "lat": -21.491474461899767, "lon": -124.9046479827862, "alt_km": 648.6279986868021, "timestamp": "2025-12-17T23:38:07.248463+00:00", "meta": {"OBJECT_NAME": "COSMOS 2251 DEB", "OBJECT_ID": "1993-036YW", "EPOCH": "2025-12-16T18:21:15.479136", "MEAN_MOTION": 14.70884909, "ECCENTRICITY": 0.00412574, "INCLINATION": 74.0172, "RA_OF_ASC_NODE": 243.9455, "ARG_OF_PERICENTER": 40.4825, "MEAN_ANOMALY": 319.9403, "EPHEMERIS_TYPE": 0, "CLASSIFICATION_TYPE": "U", "NORAD_CAT_ID": 34728, "ELEMENT_SET_NO": 999, "REV_AT_EPOCH": 88859, "BSTAR": 0.00053201637, "MEAN_MOTION_DOT": 3.267e-05, "MEAN_MOTION_DDOT": 0}, "tle": {"line1": "1 34728U 93036YW  25350.76476249  .00003267  00000+0  53202-3 0  9997", "line2": "2 34728  74.0172 243.9455 0041257  40.4825 319.9403 14.70884909888598"}}, "geometry": {"type": "Point", "coordinates": [-124.9046479827862, -21.491474461899767]}}, {"type": "Feature", "properties": {"norad_id": 34729, "name": "COSMOS 2251 DEB", "group": "cosmos-2251-debris", "lat": -36.653562026060015, "lon": -179.6459135801183, "alt_km": 629.4530610552647, "timestamp": "2025-12-17T23:38:07.248473+00:00", "meta": {"OBJECT_NAME": "COSMOS 2251 DEB", "OBJECT_ID": "1993-036YX", "EPOCH": "2025-12-17T10:22:35.009760", "MEAN_MOTION": 14.82930363, "ECCENTRICITY": 0.00118283, "INCLINATION": 74.0175, "RA_OF_ASC_NODE": 349.134, "ARG_OF_PERICENTER": 105.2958, "MEAN_ANOMALY": 44.7797, "EPHEMERIS_TYPE": 0, "CLASSIFICATION_TYPE": "U", "NORAD_CAT_ID": 34729, "ELEMENT_SET_NO": 999, "REV_AT_EPOCH": 88527, "BSTAR": 0.0014550723, "MEAN_MOTION_DOT": 0.00011807, "MEAN_MOTION_DDOT": 0}, "tle": {"line1": "1 34729U 93036YX  25351.43234965  .00011807  00000+0  14551-2 0  9992", "line2": "2 34729  74.0175 349.1340 0011828 105.2958  44.7797 14.82930363885272"}}, "geometry": {"type": "Point", "coordinates": [-179.6459135801183, -36.653562026060015]}}, {"type": "Feature", "properties": {"norad_id": 34732, "name": "COSMOS 2251 DEB", "group": "cosmos-2251-debris", "lat": 45.003810709680465, "lon": -113.23922522685308, "alt_km": 735.5259727047178, "timestamp": "2025-12-17T23:38:07.248483+00:00", "meta": {"OBJECT_NAME": "COSMOS 2251 DEB", "OBJECT_ID": "1993-036ZA", "EPOCH": "2025-12-17T13:10:11.597376", "MEAN_MOTION": 14.47306352, "ECCENTRICITY": 0.00403175, "INCLINATION": 74.0458, "RA_OF_ASC_NODE": 84.2002, "ARG_OF_PERICENTER": 234.3302, "MEAN_ANOMALY": 147.615, "EPHEMERIS_TYPE": 0, "CLASSIFICATION_TYPE": "U", "NORAD_CAT_ID": 34732, "ELEMENT_SET_NO": 999, "REV_AT_EPOCH": 88213, "BSTAR": 0.00011961338, "MEAN_MOTION_DOT": 4.14e-06, "MEAN_MOTION_DDOT": 0}, "tle": {"line1": "1 34732U 93036ZA  25351.54874534  .00000414  00000+0  11961-3 0  9995", "line2": "2 34732  74.0458  84.2002 0040317 234.3302 147.6150 14.47306352882138"}}, "geometry": {"type": "Point", "coordinates": [-113.23922522685308, 45.003810709680465]}}, {"type": "Feature", "properties": {"norad_id": 34736, "name": "COSMOS 2251 DEB", "group": "cosmos-2251-debris", "lat": 34.13507730369986, "lon": 35.91602139468309, "alt_km": 402.0263583567339, "timestamp": "2025-12-17T23:38:07.248493+00:00", "meta": {"OBJECT_NAME": "COSMOS 2251 DEB", "OBJECT_ID": "1993-036ZE", "EPOCH": "2025-12-17T12:39:06.528096", "MEAN_MOTION": 15.51660641, "ECCENTRICITY": 0.00159306, "INCLINATION": 73.9994, "RA_OF_ASC_NODE": 25.7065, "ARG_OF_PERICENTER": 342.4712, "MEAN_ANOMALY": 17.595, "EPHEMERIS_TYPE": 0, "CLASSIFICATION_TYPE": "U", "NORAD_CAT_ID": 34736, "ELEMENT_SET_NO": 999, "REV_AT_EPOCH": 88522, "BSTAR": 0.0071677305, "MEAN_MOTION_DOT": 0.00453384, "MEAN_MOTION_DDOT": 0}, "tle": {"line1": "1 34736U 93036ZE  25351.52715889  .00453384  00000+0  71677-2 0  9991", "line2": "2 34736  73.9994  25.7065 0015930 342.4712  17.5950 15.51660641885229"}}, "geometry": {"type": "Point", "coordinates": [35.91602139468309, 34.13507730369986]}}]}